NORAD_CAT_ID,OBJECT_NAME,OBJECT_TYPE,EPOCH,MEAN_MOTION,ECCENTRICITY,INCLINATION,RA_OF_ASC_NODE,ARG_OF_PERICENTER,MEAN_ANOMALY,BSTAR,MEAN_MOTION_DOT,MEAN_MOTION_DDOT,TLE_LINE0,TLE_LINE1,TLE_LINE2,SEMIMAJOR_AXIS,PERIOD,APOGEE,PERIGEE,DECAYED
51716.0,STARLINK-3543,PAYLOAD,2023-05-03 06:00:48,15.08830785,0.0001068,53.2192,324.3262,197.3122,162.7834,-9.4793e-05,-1.796e-05,0.0,0 STARLINK-3543,1 51716U 22016C   23123.25056164 -.00001796  00000-0 -94793-4 0  9992,2 51716  53.2192 324.3262 0001068 197.3122 162.7834 15.08830785 67263,6917.909,95.438,540.512,539.035,0.0
51716.0,STARLINK-3543,PAYLOAD,2023-05-03 18:43:53,15.08835325,0.0001041,53.2169,321.9432,82.0345,278.0765,1.4202e-05,-6.2e-07,0.0,0 STARLINK-3543,1 51716U 22016C   23123.78048498 -.00000062  00000-0  14202-4 0  9992,2 51716  53.2169 321.9432 0001041  82.0345 278.0765 15.08835325 66287,6917.895,95.438,540.48,539.04,0.0
51716.0,STARLINK-3543,PAYLOAD,2023-05-04 01:05:26,15.08844557,0.0001073,53.2172,320.7535,95.2647,264.8467,0.00014831,2.074e-05,0.0,0 STARLINK-3543,1 51716U 22016C   23124.04544054  .00002074  00000-0  14831-3 0  9992,2 51716  53.2172 320.7535 0001073  95.2647 264.8467 15.08844557 67389,6917.866,95.437,540.474,538.989,0.0
51716.0,STARLINK-3543,PAYLOAD,2023-05-04 12:13:08,15.08839721,0.0001048,53.2165,318.6729,88.1364,271.9748,7.285e-05,8.72e-06,0.0,0 STARLINK-3543,1 51716U 22016C   23124.50912317  .00000872  00000-0  72850-4 0  9994,2 51716  53.2165 318.6729 0001048  88.1364 271.9748 15.08839721 66399,6917.881,95.438,540.471,539.021,0.0
51716.0,STARLINK-3543,PAYLOAD,2023-05-04 20:10:03,15.08842706,0.0001021,53.2166,317.1862,84.0196,276.0912,0.00010592,1.398e-05,0.0,0 STARLINK-3543,1 51716U 22016C   23124.84032245  .00001398  00000-0  10592-3 0  9992,2 51716  53.2166 317.1862 0001021  84.0196 276.0912 15.08842706 66443,6917.872,95.437,540.443,539.031,0.0
51716.0,STARLINK-3543,PAYLOAD,2023-05-05 05:42:22,15.08834148,6.84e-05,53.2169,315.4021,93.7711,266.3359,-5.5325e-05,-1.168e-05,0.0,0 STARLINK-3543,1 51716U 22016C   23125.23776403 -.00001168  00000-0 -55325-4 0  9998,2 51716  53.2169 315.4021 0000684  93.7711 266.3359 15.08834148 67560,6917.898,95.438,540.236,539.29,0.0
51716.0,STARLINK-3543,PAYLOAD,2023-05-05 20:00:50,15.08848327,0.0001033,53.2169,312.7259,90.3485,269.7626,0.0003906,5.935e-05,0.0,0 STARLINK-3543,1 51716U 22016C   23125.83392248  .00005935  00000-0  39060-3 0  9996,2 51716  53.2169 312.7259 0001033  90.3485 269.7626 15.08848327 66593,6917.855,95.437,540.435,539.005,0.0
51716.0,STARLINK-3543,PAYLOAD,2023-05-05 21:36:13,15.0885094,0.0001068,53.2167,312.4285,89.2524,270.8591,0.00046855,7.179e-05,0.0,0 STARLINK-3543,1 51716U 22016C   23125.90016193  .00007179  00000-0  46855-3 0  9998,2 51716  53.2167 312.4285 0001068  89.2524 270.8591 15.08850940 67663,6917.847,95.437,540.451,538.973,0.0
51716.0,STARLINK-3543,PAYLOAD,2023-05-06 21:27:01,15.0884758,0.0001288,53.2141,307.9655,81.8574,278.2564,0.00037283,5.652e-05,0.0,0 STARLINK-3543,1 51716U 22016C   23126.89376333  .00005652  00000-0  37283-3 0  9991,2 51716  53.2141 307.9655 0001288  81.8574 278.2564 15.08847580 67817,6917.857,95.437,540.613,538.831,0.0
51716.0,STARLINK-3543,PAYLOAD,2023-05-07 05:23:56,15.08844916,0.000103,53.2164,306.4777,72.7259,287.3845,0.0002062,2.996e-05,0.0,0 STARLINK-3543,1 51716U 22016C   23127.22496352  .00002996  00000-0  20620-3 0  9998,2 51716  53.2164 306.4777 0001030  72.7259 287.3845 15.08844916 67863,6917.865,95.437,540.443,539.018,0.0
51716.0,STARLINK-3543,PAYLOAD,2023-05-07 18:07:02,15.0884225,0.0001056,53.2165,304.0993,93.8189,266.2924,6.7211e-05,7.82e-06,0.0,0 STARLINK-3543,1 51716U 22016C   23127.75488554  .00000782  00000-0  67211-4 0  9990,2 51716  53.2165 304.0993 0001056  93.8189 266.2924 15.08842250 66886,6917.874,95.437,540.469,539.008,0.0
51716.0,STARLINK-3543,PAYLOAD,2023-05-08 21:08:34,15.08852107,0.000108,53.2166,299.0449,86.9,273.2116,0.0001795,2.571e-05,0.0,0 STARLINK-3543,1 51716U 22016C   23128.88096064  .00002571  00000-0  17950-3 0  9998,2 51716  53.2166 299.0449 0001080  86.9000 273.2116 15.08852107 67051,6917.843,95.437,540.456,538.961,0.0
51716.0,STARLINK-3543,PAYLOAD,2023-05-09 13:02:27,15.08837239,8.24e-05,53.2164,296.0719,88.5715,271.5372,9.0412e-05,1.151e-05,0.0,0 STARLINK-3543,1 51716U 22016C   23129.54336821  .00001151  00000-0  90412-4 0  9998,2 51716  53.2164 296.0719 0000824  88.5715 271.5372 15.08837239 67157,6917.889,95.438,540.324,539.184,0.0
51716.0,STARLINK-3543,PAYLOAD,2023-05-09 20:59:22,15.08848676,9.58e-05,53.2169,294.5848,91.1514,268.9588,0.00024683,3.644e-05,0.0,0 STARLINK-3543,1 51716U 22016C   23129.87456341  .00003644  00000-0  24683-3 0  9999,2 51716  53.2169 294.5848 0000958  91.1514 268.9588 15.08848676 67205,6917.854,95.437,540.382,539.056,0.0
51716.0,STARLINK-3543,PAYLOAD,2023-05-10 17:39:23,15.08833268,0.0001028,53.2177,290.7197,95.6692,264.4418,5.2287e-06,-2.05e-06,0.0,0 STARLINK-3543,1 51716U 22016C   23130.73569237 -.00000205  00000-0  52287-5 0  9999,2 51716  53.2177 290.7197 0001028  95.6692 264.4418 15.08833268 68399,6917.901,95.438,540.477,539.055,0.0
51716.0,STARLINK-3543,PAYLOAD,2023-05-11 03:11:42,15.08834421,9.37e-05,53.2176,288.9346,90.8721,269.2379,0.00018851,2.713e-05,0.0,0 STARLINK-3543,1 51716U 22016C   23131.13313402  .00002713  00000-0  18851-3 0  9997,2 51716  53.2176 288.9346 0000937  90.8721 269.2379 15.08834421 67391,6917.897,95.438,540.411,539.114,0.0
51716.0,STARLINK-3543,PAYLOAD,2023-05-11 17:30:10,15.08854896,9.27e-05,53.2168,286.2599,98.8298,261.28,0.00047589,7.297e-05,0.0,0 STARLINK-3543,1 51716U 22016C   23131.72928846  .00007297  00000-0  47589-3 0  9998,2 51716  53.2168 286.2599 0000927  98.8298 261.2800 15.08854896 68546,6917.835,95.437,540.341,539.059,0.0
51716.0,STARLINK-3543,PAYLOAD,2023-05-12 03:02:29,15.08851008,8.95e-05,53.2169,284.4786,97.8941,262.2153,0.00059874,9.257e-05,0.0,0 STARLINK-3543,1 51716U 22016C   23132.12673018  .00009257  00000-0  59874-3 0  9999,2 51716  53.2169 284.4786 0000895  97.8941 262.2153 15.08851008 68604,6917.847,95.437,540.331,539.093,0.0
51716.0,STARLINK-3543,PAYLOAD,2023-05-12 17:20:57,15.08845805,8.47e-05,53.2163,281.7998,83.7867,276.3221,0.00028495,4.251e-05,0.0,0 STARLINK-3543,1 51716U 22016C   23132.72289211  .00004251  00000-0  28495-3 0  9997,2 51716  53.2163 281.7998 0000847  83.7867 276.3221 15.08845805 68690,6917.863,95.437,540.314,539.142,0.0
51716.0,STARLINK-3543,PAYLOAD,2023-05-13 12:25:35,15.08843148,8.87e-05,53.2156,278.2323,82.2846,277.8247,0.00026896,3.996e-05,0.0,0 STARLINK-3543,1 51716U 22016C   23133.51777132  .00003996  00000-0  26896-3 0  9997,2 51716  53.2156 278.2323 0000887  82.2846 277.8247 15.08843148 67758,6917.871,95.437,540.349,539.122,0.0
51716.0,STARLINK-3543,PAYLOAD,2023-05-13 18:47:07,15.08850811,9.59e-05,53.2154,277.0428,76.4167,283.6932,0.00051226,7.877e-05,0.0,0 STARLINK-3543,1 51716U 22016C   23133.78272947  .00007877  00000-0  51226-3 0  9997,2 51716  53.2154 277.0428 0000959  76.4167 283.6932 15.08850811 67795,6917.847,95.437,540.376,539.049,0.0
51716.0,STARLINK-3543,PAYLOAD,2023-05-14 02:44:03,15.08841343,6.15e-05,53.2158,275.5559,84.7644,275.3418,0.00023301,3.423e-05,0.0,0 STARLINK-3543,1 51716U 22016C   23134.11393058  .00003423  00000-0  23301-3 0  9998,2 51716  53.2158 275.5559 0000615  84.7644 275.3418 15.08841343 68909,6917.876,95.437,540.167,539.316,0.0
51716.0,STARLINK-3543,PAYLOAD,2023-05-14 13:51:45,15.08835505,0.0001197,53.2155,273.4745,79.0237,281.0889,5.1136e-05,5.26e-06,0.0,0 STARLINK-3543,1 51716U 22016C   23134.57761562  .00000526  00000-0  51136-4 0  9996,2 51716  53.2155 273.4745 0001197  79.0237 281.0889 15.08835505 67910,6917.894,95.438,540.587,538.931,0.0
51716.0,STARLINK-3543,PAYLOAD,2023-05-14 17:02:32,15.08837354,0.0001188,53.216,272.8787,80.9549,279.1578,7.7095e-05,9.39e-06,0.0,0 STARLINK-3543,1 51716U 22016C   23134.71009570  .00000939  00000-0  77095-4 0  9996,2 51716  53.2160 272.8787 0001188  80.9549 279.1578 15.08837354 67931,6917.888,95.438,540.575,538.932,0.0
51716.0,STARLINK-3543,PAYLOAD,2023-05-15 02:34:51,15.08838214,0.000122,53.2162,271.0944,80.0743,280.0386,0.00013176,1.81e-05,0.0,0 STARLINK-3543,1 51716U 22016C   23135.10753666  .00001810  00000-0  13176-3 0  9990,2 51716  53.2162 271.0944 0001220  80.0743 280.0386 15.08838214 67993,6917.886,95.438,540.595,538.907,0.0
51716.0,STARLINK-3543,PAYLOAD,2023-05-15 15:17:56,15.0884456,0.0001007,53.2161,268.7132,94.9057,265.205,0.00025471,3.769e-05,0.0,0 STARLINK-3543,1 51716U 22016C   23135.63745502  .00003769  00000-0  25471-3 0  9994,2 51716  53.2161 268.7132 0001007  94.9057 265.2050 15.08844560 68073,6917.866,95.437,540.428,539.035,0.0
51716.0,STARLINK-3543,PAYLOAD,2023-05-16 13:33:18,15.08862566,0.0001159,53.2164,264.5507,84.0547,276.0577,-0.00049634,-8.183e-05,0.0,0 STARLINK-3543,1 51716U 22016C   23136.56480247 -.00008183  00000-0 -49634-3 0  9993,2 51716  53.2164 264.5507 0001159  84.0547 276.0577 15.08862566 69271,6917.811,95.436,540.478,538.875,0.0
51716.0,STARLINK-3543,PAYLOAD,2023-05-16 18:19:29,15.08844681,9.93e-05,53.2163,263.6592,90.6796,269.431,0.00014599,2.037e-05,0.0,0 STARLINK-3543,1 51716U 22016C   23136.76353538  .00002037  00000-0  14599-3 0  9999,2 51716  53.2163 263.6592 0000993  90.6796 269.4310 15.08844681 69301,6917.866,95.437,540.418,539.044,0.0
51716.0,STARLINK-3543,PAYLOAD,2023-05-17 08:37:57,15.08838043,0.000107,53.2159,260.9827,94.4027,265.7088,4.47e-05,4.24e-06,0.0,0 STARLINK-3543,1 51716U 22016C   23137.35969894  .00000424  00000-0  44700-4 0  9999,2 51716  53.2159 260.9827 0001070  94.4027 265.7088 15.08838043 69398,6917.886,95.438,540.492,539.011,0.0
51716.0,STARLINK-3543,PAYLOAD,2023-05-17 13:24:07,15.08840301,0.0001087,53.216,260.0906,94.6496,265.462,6.4e-05,7.31e-06,0.0,0 STARLINK-3543,1 51716U 22016C   23137.55841759  .00000731  00000-0  64000-4 0  9996,2 51716  53.2160 260.0906 0001087  94.6496 265.4620 15.08840301 68364,6917.879,95.438,540.496,538.992,0.0
